0000068800
006

SAKO31 RKSL 290000
METAR 290000Z
METAR RKNY 290000Z 03005KT 9999 BKN010 28/25 Q1003 NOSIG=
METAR RKSS 290000Z 28002KT CAVOK 32/27 Q1002 NOSIG=
METAR RKSI 290000Z 04004KT 010V090 CAVOK 30/25 Q1002 NOSIG=
METAR RKTU 290000Z 24002KT 9000 NSC 30/25 Q1002 RMK SLP023
=
METAR RKTN 290000Z 15002KT 9999 FEW050 30/23 Q1003 RMK SLP036
8/500 9/100=
METAR RKPU 290000Z 34002KT 9999 FEW030 31/22 Q1003 NOSIG=
METAR RKPK 290000Z 32002KT 9999 FEW030 29/22 Q1003 RMK SLP034
8/500 9/100=
METAR RKJB 290000Z 09005KT 050V130 CAVOK 31/22 Q1002 NOSIG=
METAR RKJY 290000Z 06003KT 360V060 CAVOK 30/23 Q1003 NOSIG=
METAR RKPC 290000Z 09013KT CAVOK 31/23 Q1001 NOSIG=
